GALAXY 25 (G-25)        
1 24812U 97026A   22254.11519362 -.00000022  00000+0  00000+0 0  9997
2 24812   3.8985  82.7831 0002432  83.2098 291.7118  1.00272200 92589
INTELSAT 5 (IS-5)       
1 24916U 97046A   22253.75287794 -.00000079  00000+0  00000+0 0  9996
2 24916   7.4058  60.4490 0004171 131.4251 235.0804  1.00272584 91833
GALAXY 11 (G-11)        
1 26038U 99071A   22254.08345269 -.00000182  00000+0  00000+0 0  9997
2 26038   3.2221  86.6168 0000277 208.6411 351.7803  1.00271376 83289
INTELSAT 9 (IS-9)       
1 26451U 00043A   22253.37455726 -.00000305  00000+0  00000+0 0  9995
2 26451   7.3912  60.6329 0002678 123.6670 249.9327  1.00270148 30356
INTELSAT 1R (IS-1R)     
1 26608U 00072A   22254.38455295 -.00000155  00000+0  00000+0 0  9997
2 26608   4.6640  79.8356 0000056 202.1605   3.9444  1.00272137 79866
INTELSAT 10 (IS-10)     
1 26766U 01019A   22254.13751692  .00000017  00000+0  00000+0 0  9993
2 26766   5.7773  72.6244 0002417 100.6081  44.2182  1.00272267 78141
INTELSAT 901 (IS-901)   
1 26824U 01024A   22253.95300094 -.00000223  00000+0  00000+0 0  9999
2 26824   0.0233 242.4058 0001213 300.6174 122.5125  1.00270187 77799
INTELSAT 902 (IS-902)   
1 26900U 01039A   22253.73334318 -.00000302  00000+0  00000+0 0  9990
2 26900   2.6144  88.0581 0002237  84.4125  31.1937  1.00270935 76907
INTELSAT 904 (IS-904)   
1 27380U 02007A   22254.02441803 -.00000233  00000+0  00000+0 0  9993
2 27380   3.4471  85.0224 0003065  93.4101 150.8842  1.00270772 75291
DIRECTV 5 (TEMPO 1)     
1 27426U 02023A   22253.64954361 -.00000076  00000+0  00000+0 0  9992
2 27426   1.3397  92.1899 0003437  83.9444 297.2374  1.00272339 74331
INTELSAT 905 (IS-905)   
1 27438U 02027A   22252.44698102 -.00000205  00000+0  00000+0 0  9998
2 27438   3.2648  85.7717 0002714  87.5699 311.5471  1.00270563 37569
GALAXY 3C (G-3C)        
1 27445U 02030A   22253.50915100 -.00000173  00000+0  00000+0 0  9992
2 27445   0.1886  87.3027 0000527 179.2301 171.4572  1.00270900 74154
INTELSAT 906 (IS-906)   
1 27513U 02041A   22254.47475988 -.00000004  00000+0  00000+0 0  9995
2 27513   2.2851  89.5003 0002853  86.1994  49.8463  1.00273234 73183
GALAXY 12 (G-12)        
1 27715U 03013B   22254.28180316  .00000040  00000+0  00000+0 0  9995
2 27715   3.4806  84.6621 0001891  92.9306 145.1266  1.00272368 71226
GALAXY 23 (G-23)        
1 27854U 03034A   22254.48087715 -.00000006  00000+0  00000+0 0  9996
2 27854   0.0369 250.3467 0002907 284.3765 227.8826  1.00272228 74769
GALAXY 13 (HORIZONS-1)  
1 27954U 03044A   22253.68220010  .00000027  00000+0  00000+0 0  9998
2 27954   0.0276 238.4324 0000161 356.4697 233.3691  1.00273028 69362
INTELSAT 10-02          
1 28358U 04022A   22253.74310962 -.00000032  00000+0  00000+0 0  9994
2 28358   0.0342 257.9093 0000971 284.4498  73.9125  1.00271279 66758
XM-3 (RHYTHM)           
1 28626U 05008A   22253.86981178 -.00000226  00000+0  00000+0 0  9998
2 28626   0.0216 145.8289 0001664  34.9926  37.0879  1.00267953 64278
DIRECTV 8               
1 28659U 05019A   22254.07830788 -.00000019  00000+0  00000+0 0  9990
2 28659   0.0171 121.8309 0002939  62.1446  75.2483  1.00272633 63395
GALAXY 28 (G-28)        
1 28702U 05022A   22253.51028462 -.00000206  00000+0  00000+0 0  9997
2 28702   0.0181  90.4760 0002016  79.5485 274.1911  1.00270062 38187
GALAXY 14 (G-14)        
1 28790U 05030A   22253.53461351  .00000135  00000+0  00000+0 0  9993
2 28790   1.4727  91.3177 0002024  75.4357  48.1635  1.00273512 62518
GALAXY 15 (G-15)        
1 28884U 05041A   22254.07560466  .00000055  00000+0  00000+0 0  9997
2 28884   0.0350  88.2867 0002075 105.4305  51.1799  1.00282536 61816
SPACEWAY 2              
1 28903U 05046B   22253.64387559  .00000084  00000+0  00000+0 0  9998
2 28903   2.0963  87.1356 0000795 347.9944   7.4107  1.00271606 37546
GALAXY 16 (G-16)        
1 29236U 06023A   22253.65181083 -.00000148  00000+0  00000+0 0  9991
2 29236   0.0324 252.6248 0002906 285.9390 306.7419  1.00271577 59188
DIRECTV 9S              
1 29494U 06043A   22253.65137483 -.00000134  00000+0  00000+0 0  9999
2 29494   0.0084 144.8834 0003088  24.5362 313.5257  1.00271619 37592
XM-4 (BLUES)            
1 29520U 06049A   22254.01334361 -.00000226  00000+0  00000+0 0  9992
2 29520   0.0666 317.3430 0001646   2.4112 309.9795  1.00272457 58201
GALAXY 17 (G-17)        
1 31307U 07016B   22253.50993580 -.00000195  00000+0  00000+0 0  9995
2 31307   0.0148 102.8113 0002733  66.1967 273.0877  1.00272509 56006
DIRECTV 10              
1 31862U 07032A   22253.65102602 -.00000124  00000+0  00000+0 0  9994
2 31862   0.0353 330.5942 0000443 245.0474 265.5805  1.00274179 31800
SPACEWAY 3              
1 32018U 07036A   22254.15486979 -.00000171  00000+0  00000+0 0  9992
2 32018   0.4421  90.3814 0000410  29.9963 190.5690  1.00271378 55330
INTELSAT 11 (IS-11)     
1 32253U 07044B   22253.70407203 -.00000289  00000+0  00000+0 0  9995
2 32253   0.0223 103.9217 0001765  64.7144  31.5599  1.00271742 54704
HORIZONS-2              
1 32388U 07063B   22254.02040682 -.00000290  00000+0  00000+0 0  9997
2 32388   0.0187 104.7860 0002655  12.5944 190.6076  0.99709340 54088
DIRECTV 11              
1 32729U 08013A   22254.08223189 -.00000146  00000+0  00000+0 0  9993
2 32729   0.0173  35.0018 0000237 172.3135  73.1706  1.00271708 53140
GALAXY 18 (G-18)        
1 32951U 08024A   22253.71878073  .00000005  00000+0  00000+0 0  9992
2 32951   0.0255 164.9726 0003448  12.7283 307.7763  1.00270168 32060
INTELSAT 25 (IS-25)     
1 33153U 08034A   22254.02398204 -.00000244  00000+0  00000+0 0  9992
2 33153   0.0096 156.5531 0003189  17.6444 152.9528  1.00270622 51856
GALAXY 19 (G-19)        
1 33376U 08045A   22254.44136656 -.00000159  00000+0  00000+0 0  9993
2 33376   0.0334 267.1893 0003192 269.9967 235.1390  1.00271991 51057
FM-5                    
1 35493U 09034A   22253.51089500 -.00000222  00000+0  00000+0 0  9997
2 35493   0.0221 163.1214 0000394 234.0733  50.1207  1.00272131 48180
INTELSAT 14 (IS-14)     
1 36097U 09064A   22254.17555292 -.00000293  00000+0  00000+0 0  9998
2 36097   0.0194 112.3405 0002489  66.8648 189.1829  1.00272446 46901
INTELSAT 15 (IS-15)     
1 36106U 09067A   22253.68373817 -.00000206  00000+0  00000+0 0  9992
2 36106   0.0154 155.0272 0002407  21.9052 144.0484  1.00269997 27436
DIRECTV 12              
1 36131U 09075A   22254.08153428 -.00000124  00000+0  00000+0 0  9997
2 36131   0.0417 315.3624 0000170 266.0763  55.2677  1.00271938 46597
INTELSAT 16 (IS-16)     
1 36397U 10006A   22254.08685351 -.00000265  00000+0  00000+0 0  9998
2 36397   0.0171 161.4835 0002221  12.5409 131.1356  1.00269199 45933
XM-5                    
1 37185U 10053A   22253.64858440 -.00000044  00000+0  00000+0 0  9993
2 37185   0.0233 165.9227 0000681 217.8475  84.1799  1.00268878 43651
INTELSAT 17 (IS-17)     
1 37238U 10065B   22253.69950326 -.00000023  00000+0  00000+0 0  9993
2 37238   0.0226 189.6826 0002539 348.4656 129.3848  1.00271931 39449
INTELSAT NEW DAWN       
1 37392U 11016A   22254.03680050  .00000135  00000+0  00000+0 0  9997
2 37392   0.0178 143.7369 0000817  18.7002 233.6274  1.00273409 41726
INTELSAT 18 (IS-18)     
1 37834U 11056A   22254.13786572  .00000033  00000+0  00000+0 0  9996
2 37834   0.0429   0.6491 0002154 158.7750  60.3469  1.00273003 40050
INTELSAT 22 (IS-22)     
1 38098U 12011A   22253.67772640 -.00000080  00000+0  00000+0 0  9993
2 38098   0.0107 151.0127 0002662  20.7686 133.9942  1.00271620 38023
INTELSAT 19 (IS-19)     
1 38356U 12030A   22253.80493428 -.00000077  00000+0  00000+0 0  9996
2 38356   0.0163 116.1698 0003125  59.0380 270.3877  1.00272514 36640
INTELSAT 20 (IS-20)     
1 38740U 12043A   22253.97218503 -.00000046  00000+0  00000+0 0  9990
2 38740   0.0177 152.2095 0001921  24.7625 231.4916  1.00275813 37049
INTELSAT 21 (IS-21)     
1 38749U 12045A   22253.73168637 -.00000306  00000+0  00000+0 0  9996
2 38749   0.0143 119.1418 0002224  45.0482  30.9595  1.00271998 36848
INTELSAT 23 (IS-23)     
1 38867U 12057A   22254.11305096 -.00000305  00000+0  00000+0 0  9994
2 38867   0.0398 265.9802 0001010 105.2236 326.6197  1.00272567 36314
FM-6                    
1 39360U 13058A   22254.29412876 -.00000037  00000+0  00000+0 0  9991
2 39360   0.0539 272.3121 0000636 153.3519 274.3682  1.00275680 32567
INTELSAT 30 (IS-30)     
1 40271U 14062A   22252.34930539 -.00000171  00000+0  00000+0 0  9994
2 40271   0.0227 169.2025 0002028 262.3854 307.4792  1.00260851 28773
DIRECTV 14              
1 40333U 14078B   22253.57414394 -.00000147  00000+0  00000+0 0  9995
2 40333   0.0175 107.3761 0000065  87.7718 261.9058  1.00272767 28263
DIRECTV 15              
1 40663U 15026A   22254.22497889 -.00000123  00000+0  00000+0 0  9992
2 40663   0.0166 118.1597 0000336 293.0605 277.1372  1.00275033 26742
SKY MEXICO-1            
1 40664U 15026B   22253.71619980 -.00000255  00000+0  00000+0 0  9990
2 40664   0.0140  99.2487 0002257  90.9050 338.6372  1.00272489 26660
INTELSAT 34 (IS-34)     
1 40874U 15039A   22254.28596897 -.00000305  00000+0  00000+0 0  9997
2 40874   0.0477 309.6907 0000596 135.3696 312.6884  1.00274613 25834
INTELSAT 31 (IS-31)     
1 41581U 16035A   22253.32657751 -.00000171  00000+0  00000+0 0  9992
2 41581   0.0178 216.0810 0001154   9.1938 146.5673  1.00266120 22897
INTELSAT 36 (IS-36)     
1 41747U 16053A   22253.20818988 -.00000046  00000+0  00000+0 0  9995
2 41747   0.0196 140.5582 0002298 219.5966 132.5153  1.00271310 22150
INTELSAT 33E (IS-33E)   
1 41748U 16053B   22254.11397282  .00000029  00000+0  00000+0 0  9996
2 41748   0.0185 159.2922 0001440  47.6802 244.1467  1.00270375 22430
INTELSAT 32E (IS-32E)   
1 41945U 17007B   22254.28805271 -.00000289  00000+0  00000+0 0  9994
2 41945   0.0039 190.4195 0000499 289.5686 290.8205  1.00273939 20464
INTELSAT 35E (IS-35E)   
1 42818U 17041A   22254.02337163 -.00000258  00000+0  00000+0 0  9990
2 42818   0.0112 130.9826 0001821  36.1626 156.7857  1.00271455 19020
INTELSAT 37E (IS-37E)   
1 42950U 17059A   22253.38092288 -.00000162  00000+0  00000+0 0  9994
2 42950   0.0158 141.8295 0002785  30.1871 296.5019  1.00272347 18274
AZERSPACE 2 (IS-38)     
1 43632U 18074A   22254.19846793  .00000117  00000+0  00000+0 0  9997
2 43632   0.0117 136.1853 0001574  35.5989 294.9601  1.00271155 14651
HORIZONS-3E             
1 43633U 18074B   22254.49447160 -.00000050  00000+0  00000+0 0  9993
2 43633   0.0323 339.6640 0001090 311.1145  46.6956  1.00271663 14531
AT&T T-16               
1 44333U 19034A   22254.39083052 -.00000135  00000+0  00000+0 0  9997
2 44333   0.0193 149.2633 0000187 137.9162 103.0197  1.00272647 11849
INTELSAT 39 (IS-39)     
1 44476U 19049B   22254.22346917  .00000014  00000+0  00000+0 0  9990
2 44476   0.0170 206.2833 0000636 173.1558 113.1667  1.00270619 11344
GALAXY 30 (G-30)        
1 46114U 20056C   22253.64657880  .00000016  00000+0  00000+0 0  9992
2 46114   0.0261 160.0081 0002213  18.1734 279.2431  1.00270998  7499
